STARLINK-3766           
1 52296U 22041AM  26068.80116918  .00000010  00000+0  18732-4 0  9994
2 52296  53.2167  98.6191 0001405  90.4516 269.6637 15.08840188214525
PRSC-S1                 
1 65055U 25164A   26068.60758212  .00007316  00000+0  46631-3 0  9991
2 65055  41.1290 129.3637 0004466 348.3012  11.7698 15.08919510 33403
